NORAD_CAT_ID,OBJECT_NAME,OBJECT_TYPE,EPOCH,MEAN_MOTION,ECCENTRICITY,INCLINATION,RA_OF_ASC_NODE,ARG_OF_PERICENTER,MEAN_ANOMALY,BSTAR,MEAN_MOTION_DOT,MEAN_MOTION_DDOT,TLE_LINE0,TLE_LINE1,TLE_LINE2,SEMIMAJOR_AXIS,PERIOD,APOGEE,PERIGEE,DECAYED
53552.0,STARLINK-4495,PAYLOAD,2024-03-26 03:04:48,15.08811434,0.000165,53.2191,27.4163,110.5068,249.6101,-0.00034201,-5.723e-05,0.0,0 STARLINK-4495,1 53552U 22101AB  24086.12834482 -.00005723  00000-0 -34201-3 0  9990,2 53552  53.2191  27.4163 0001650 110.5068 249.6101 15.08811434 88586,6917.968,95.439,540.974,538.691,0.0
53552.0,STARLINK-4495,PAYLOAD,2024-03-26 12:37:08,15.08822762,0.0001472,53.2199,25.6354,109.9749,250.1402,0.00028985,4.326e-05,0.0,0 STARLINK-4495,1 53552U 22101AB  24086.52579013  .00004326  00000-0  28985-3 0  9998,2 53552  53.2199  25.6354 0001472 109.9749 250.1402 15.08822762 88640,6917.933,95.439,540.816,538.78,0.0
53552.0,STARLINK-4495,PAYLOAD,2024-03-27 02:55:36,15.08870323,0.0001049,53.2183,22.9603,113.9817,246.1285,0.0020034,0.00031767,0.0,0 STARLINK-4495,1 53552U 22101AB  24087.12194879  .00031767  00000-0  20034-2 0  9993,2 53552  53.2183  22.9603 0001049 113.9817 246.1285 15.08870323 88731,6917.788,95.436,540.378,538.927,0.0
53552.0,STARLINK-4495,PAYLOAD,2024-03-28 04:21:46,15.08858472,0.0001448,53.2174,18.2069,137.3942,222.7163,0.00050072,7.694e-05,0.0,0 STARLINK-4495,1 53552U 22101AB  24088.18178243  .00007694  00000-0  50072-3 0  9995,2 53552  53.2174  18.2069 0001448 137.3942 222.7163 15.08858472 88890,6917.824,95.436,540.691,538.687,0.0
53552.0,STARLINK-4495,PAYLOAD,2024-03-28 12:18:41,15.08852604,0.0001485,53.219,16.7121,85.5833,274.5329,0.00048101,7.378e-05,0.0,0 STARLINK-4495,1 53552U 22101AB  24088.51298468  .00007378  00000-0  48101-3 0  9993,2 53552  53.2190  16.7121 0001485  85.5833 274.5329 15.08852604 88940,6917.842,95.437,540.734,538.68,0.0
53552.0,STARLINK-4495,PAYLOAD,2024-03-29 02:37:09,15.08849664,0.0001338,53.2191,14.04,92.227,267.8875,0.00017594,2.514e-05,0.0,0 STARLINK-4495,1 53552U 22101AB  24089.10914083  .00002514  00000-0  17594-3 0  9996,2 53552  53.2191  14.0400 0001338  92.2270 267.8875 15.08849664 89033,6917.851,95.437,540.641,538.79,0.0
53552.0,STARLINK-4495,PAYLOAD,2024-03-29 12:09:28,15.08840822,0.0001232,53.2195,12.255,84.2625,275.8507,0.00041155,6.268e-05,0.0,0 STARLINK-4495,1 53552U 22101AB  24089.50658477  .00006268  00000-0  41155-3 0  9992,2 53552  53.2195  12.2550 0001232  84.2625 275.8507 15.08840822 89095,6917.878,95.438,540.595,538.891,0.0
53552.0,STARLINK-4495,PAYLOAD,2024-03-29 18:31:01,15.08840143,0.0001381,53.2184,11.0643,88.9189,271.1961,5.1449e-05,5.31e-06,0.0,0 STARLINK-4495,1 53552U 22101AB  24089.77154505  .00000531  00000-0  51449-4 0  9999,2 53552  53.2184  11.0643 0001381  88.9189 271.1961 15.08840143 89789,6917.88,95.438,540.7,538.79,0.0
53552.0,STARLINK-4495,PAYLOAD,2024-03-30 12:00:16,15.08838203,0.0001362,53.2166,7.7928,102.1424,257.9721,7.2688e-05,8.69e-06,0.0,0 STARLINK-4495,1 53552U 22101AB  24090.50018775  .00000869  00000-0  72688-4 0  9992,2 53552  53.2166   7.7928 0001362 102.1424 257.9721 15.08838203 89248,6917.886,95.438,540.693,538.809,0.0
53552.0,STARLINK-4495,PAYLOAD,2024-03-30 23:07:58,15.08839873,0.0001668,53.2177,5.7101,94.9479,265.1703,0.00016506,2.34e-05,0.0,0 STARLINK-4495,1 53552U 22101AB  24090.96387041  .00002340  00000-0  16506-3 0  9999,2 53552  53.2177   5.7101 0001668  94.9479 265.1703 15.08839873 89962,6917.881,95.438,540.9,538.592,0.0
53552.0,STARLINK-4495,PAYLOAD,2024-03-31 11:51:03,15.08844976,0.0001497,53.2178,3.333,96.0604,264.0559,8.336e-05,1.039e-05,0.0,0 STARLINK-4495,1 53552U 22101AB  24091.49378731  .00001039  00000-0  83360-4 0  9991,2 53552  53.2178   3.3330 0001497  96.0604 264.0559 15.08844976 90042,6917.865,95.437,540.766,538.695,0.0
53552.0,STARLINK-4495,PAYLOAD,2024-03-31 21:23:21,15.08850237,0.0001465,53.216,1.5493,88.4439,271.6721,0.00031864,4.788e-05,0.0,0 STARLINK-4495,1 53552U 22101AB  24091.89122508  .00004788  00000-0  31864-3 0  9999,2 53552  53.2160   1.5493 0001465  88.4439 271.6721 15.08850237 90108,6917.849,95.437,540.728,538.701,0.0
53552.0,STARLINK-4495,PAYLOAD,2024-04-01 00:34:08,15.08853515,0.0001351,53.2176,0.9545,85.4094,274.7052,0.00040161,6.112e-05,0.0,0 STARLINK-4495,1 53552U 22101AB  24092.02370457  .00006112  00000-0  40161-3 0  9996,2 53552  53.2176   0.9545 0001351  85.4094 274.7052 15.08853515 89475,6917.839,95.437,540.639,538.769,0.0
53552.0,STARLINK-4495,PAYLOAD,2024-04-01 18:03:22,15.08845743,0.0001433,53.2171,357.6823,85.1261,274.9895,0.00020296,2.944e-05,0.0,0 STARLINK-4495,1 53552U 22101AB  24092.75234642  .00002944  00000-0  20296-3 0  9997,2 53552  53.2171 357.6823 0001433  85.1261 274.9895 15.08845743 89588,6917.863,95.437,540.719,538.737,0.0
53552.0,STARLINK-4495,PAYLOAD,2024-04-02 00:24:55,15.08845633,0.0001292,53.2174,356.4929,93.2368,266.8772,0.00012869,1.761e-05,0.0,0 STARLINK-4495,1 53552U 22101AB  24093.01730483  .00001761  00000-0  12869-3 0  9994,2 53552  53.2174 356.4929 0001292  93.2368 266.8772 15.08845633 90276,6917.863,95.437,540.622,538.834,0.0
53552.0,STARLINK-4495,PAYLOAD,2024-04-02 21:04:55,15.08848765,0.0001315,53.2188,352.6299,97.3776,262.7365,0.00019699,2.849e-05,0.0,0 STARLINK-4495,1 53552U 22101AB  24093.87842066  .00002849  00000-0  19699-3 0  9995,2 53552  53.2188 352.6299 0001315  97.3776 262.7365 15.08848765 90400,6917.854,95.437,540.628,538.809,0.0
53552.0,STARLINK-4495,PAYLOAD,2024-04-03 00:15:41,15.08855593,0.0001347,53.2189,352.0386,102.7781,257.3361,0.00033952,5.122e-05,0.0,0 STARLINK-4495,1 53552U 22101AB  24094.01089731  .00005122  00000-0  33952-3 0  9999,2 53552  53.2189 352.0386 0001347 102.7781 257.3361 15.08855593 89775,6917.833,95.437,540.63,538.766,0.0
53552.0,STARLINK-4495,PAYLOAD,2024-04-03 09:48:00,15.08853887,0.0001504,53.2186,350.2512,91.2029,268.9135,0.00031265,4.693e-05,0.0,0 STARLINK-4495,1 53552U 22101AB  24094.40833524  .00004693  00000-0  31265-3 0  9996,2 53552  53.2186 350.2512 0001504  91.2029 268.9135 15.08853887 90486,6917.838,95.437,540.743,538.662,0.0
53552.0,STARLINK-4495,PAYLOAD,2024-04-03 17:44:56,15.08832017,0.000169,53.2188,348.765,88.9802,271.1383,-0.0002261,-3.884e-05,0.0,0 STARLINK-4495,1 53552U 22101AB  24094.73954368 -.00003884  00000-0 -22610-3 0  9999,2 53552  53.2188 348.7650 0001690  88.9802 271.1383 15.08832017 89886,6917.905,95.438,540.939,538.601,0.0
53552.0,STARLINK-4495,PAYLOAD,2024-04-04 09:38:48,15.08834398,0.0001499,53.2191,345.7918,90.5705,269.5459,-4.324e-05,-9.76e-06,0.0,0 STARLINK-4495,1 53552U 22101AB  24095.40194648 -.00000976  00000-0 -43240-4 0  9993,2 53552  53.2191 345.7918 0001499  90.5705 269.5459 15.08834398 90636,6917.898,95.438,540.8,538.726,0.0
53552.0,STARLINK-4495,PAYLOAD,2024-04-04 20:46:29,15.08844978,0.000144,53.218,343.7101,90.21,269.9057,0.00012033,1.628e-05,0.0,0 STARLINK-4495,1 53552U 22101AB  24095.86562381  .00001628  00000-0  12033-3 0  9994,2 53552  53.2180 343.7101 0001440  90.2100 269.9057 15.08844978 90057,6917.865,95.437,540.726,538.734,0.0
53552.0,STARLINK-4495,PAYLOAD,2024-04-04 22:21:53,15.08844773,0.0001442,53.2182,343.413,87.9371,272.1786,0.00032784,4.934e-05,0.0,0 STARLINK-4495,1 53552U 22101AB  24095.93186520  .00004934  00000-0  32784-3 0  9997,2 53552  53.2182 343.4130 0001442  87.9371 272.1786 15.08844773 90714,6917.866,95.437,540.728,538.733,0.0
53552.0,STARLINK-4495,PAYLOAD,2024-04-05 09:29:35,15.08847082,0.0001482,53.2178,341.3313,88.6012,271.515,0.00050332,7.733e-05,0.0,0 STARLINK-4495,1 53552U 22101AB  24096.39554670  .00007733  00000-0  50332-3 0  9992,2 53552  53.2178 341.3313 0001482  88.6012 271.5150 15.08847082 90784,6917.859,95.437,540.749,538.699,0.0
53552.0,STARLINK-4495,PAYLOAD,2024-04-05 20:37:17,15.08849866,0.0001495,53.2177,339.2495,88.5727,271.5436,0.00041526,6.329e-05,0.0,0 STARLINK-4495,1 53552U 22101AB  24096.85922516  .00006329  00000-0  41526-3 0  9996,2 53552  53.2177 339.2495 0001495  88.5727 271.5436 15.08849866 90853,6917.85,95.437,540.749,538.681,0.0
53552.0,STARLINK-4495,PAYLOAD,2024-04-05 23:48:03,15.08851472,0.0001465,53.2179,338.6548,88.394,271.722,0.0004087,6.224e-05,0.0,0 STARLINK-4495,1 53552U 22101AB  24096.99170393  .00006224  00000-0  40870-3 0  9994,2 53552  53.2179 338.6548 0001465  88.3940 271.7220 15.08851472 90229,6917.845,95.437,540.724,538.697,0.0
53552.0,STARLINK-4495,PAYLOAD,2024-04-06 09:20:22,15.08845129,0.0001527,53.2183,336.8706,80.368,279.7485,0.00019973,2.893e-05,0.0,0 STARLINK-4495,1 53552U 22101AB  24097.38914555  .00002893  00000-0  19973-3 0  9992,2 53552  53.2183 336.8706 0001527  80.3680 279.7485 15.08845129 90281,6917.865,95.437,540.786,538.673,0.0
53552.0,STARLINK-4495,PAYLOAD,2024-04-06 22:03:27,15.08838106,0.0001599,53.2189,334.4914,80.0528,280.0645,8.1563e-05,1.01e-05,0.0,0 STARLINK-4495,1 53552U 22101AB  24097.91906818  .00001010  00000-0  81563-4 0  9999,2 53552  53.2189 334.4914 0001599  80.0528 280.0645 15.08838106 91011,6917.886,95.438,540.857,538.645,0.0
53552.0,STARLINK-4495,PAYLOAD,2024-04-07 09:11:09,15.08838046,0.0001475,53.2182,332.4093,84.4662,275.6499,0.00010602,1.4e-05,0.0,0 STARLINK-4495,1 53552U 22101AB  24098.38275017  .00001400  00000-0  10602-3 0  9999,2 53552  53.2182 332.4093 0001475  84.4662 275.6499 15.08838046 91087,6917.886,95.438,540.772,538.731,0.0
53552.0,STARLINK-4495,PAYLOAD,2024-04-07 21:54:14,15.08841006,0.0001386,53.2188,330.0302,85.2242,274.8909,0.0001731,2.468e-05,0.0,0 STARLINK-4495,1 53552U 22101AB  24098.91267053  .00002468  00000-0  17310-3 0  9997,2 53552  53.2188 330.0302 0001386  85.2242 274.8909 15.08841006 91160,6917.877,95.437,540.701,538.783,0.0
53552.0,STARLINK-4495,PAYLOAD,2024-04-08 21:45:00,15.08869437,0.0001556,53.2191,325.568,98.5691,261.5478,0.00058667,9.069e-05,0.0,0 STARLINK-4495,1 53552U 22101AB  24099.90625314  .00009069  00000-0  58667-3 0  9999,2 53552  53.2191 325.5680 0001556  98.5691 261.5478 15.08869437 91315,6917.79,95.436,540.732,538.579,0.0
